{
    "links": {
        "self": "http://www.neowsapp.com/rest/v1/neo/3441820?api_key=iIulBulltgU6a56xZRHN4H3l9WmuAYTsLGpBGhQ2"
    },
    "id": "3441820",
    "neo_reference_id": "3441820",
    "name": "(2008 YF)",
    "designation": "2008 YF",
    "nasa_jpl_url": "http://ssd.jpl.nasa.gov/sbdb.cgi?sstr=3441820",
    "absolute_magnitude_h": 20.9,
    "estimated_diameter": {
        "kilometers": {
            "estimated_diameter_min": 0.1756123185,
            "estimated_diameter_max": 0.3926810818
        },
        "meters": {
            "estimated_diameter_min": 175.6123184804,
            "estimated_diameter_max": 392.6810818086
        },
        "miles": {
            "estimated_diameter_min": 0.1091204019,
            "estimated_diameter_max": 0.2440006365
        },
        "feet": {
            "estimated_diameter_min": 576.1559189633,
            "estimated_diameter_max": 1288.3238004408
        }
    },
    "is_potentially_hazardous_asteroid": true,
    "close_approach_data": [
        {
            "close_approach_date": "2006-09-06",
            "close_approach_date_full": "2006-Sep-06 02:51",
            "epoch_date_close_approach": 1157511060000,
            "relative_velocity": {
                "kilometers_per_second": "15.2902078181",
                "kilometers_per_hour": "55044.748145192",
                "miles_per_hour": "34202.6658683278"
            },
            "miss_distance": {
                "astronomical": "0.4452127378",
                "lunar": "173.1877550042",
                "kilometers": "66602877.271748486",
                "miles": "41385108.8836656668"
            },
            "orbiting_body": "Earth"
        },
        {
            "close_approach_date": "2008-12-15",
            "close_approach_date_full": "2008-Dec-15 06:01",
            "epoch_date_close_approach": 1229320860000,
            "relative_velocity": {
                "kilometers_per_second": "14.4311159418",
                "kilometers_per_hour": "51952.0173903641",
                "miles_per_hour": "32280.9632501404"
            },
            "miss_distance": {
                "astronomical": "0.0470685738",
                "lunar": "18.3096752082",
                "kilometers": "7041358.384417806",
                "miles": "4375297.2148494828"
            },
            "orbiting_body": "Earth"
        },
        {
            "close_approach_date": "2011-01-14",
            "close_approach_date_full": "2011-Jan-14 09:00",
            "epoch_date_close_approach": 1294995600000,
            "relative_velocity": {
                "kilometers_per_second": "24.6154226921",
                "kilometers_per_hour": "88615.5216916968",
                "miles_per_hour": "55062.2390200435"
            },
            "miss_distance": {
                "astronomical": "0.4386434208",
                "lunar": "170.6322906912",
                "kilometers": "65620121.441193696",
                "miles": "40774452.7270611648"
            },
            "orbiting_body": "Earth"
        },
        {
            "close_approach_date": "2038-01-13",
            "close_approach_date_full": "2038-Jan-13 22:32",
            "epoch_date_close_approach": 2147034720000,
            "relative_velocity": {
                "kilometers_per_second": "24.4746248638",
                "kilometers_per_hour": "88108.6495098359",
                "miles_per_hour": "54747.2883579311"
            },
            "miss_distance": {
                "astronomical": "0.4341176296",
                "lunar": "168.8717579144",
                "kilometers": "64943072.717608952",
                "miles": "40353754.1582774576"
            },
            "orbiting_body": "Earth"
        },
        {
            "close_approach_date": "2120-12-20",
            "close_approach_date_full": "2120-Dec-20 20:38",
            "epoch_date_close_approach": 4764170280000,
            "relative_velocity": {
                "kilometers_per_second": "15.254857144",
                "kilometers_per_hour": "54917.4857184205",
                "miles_per_hour": "34123.5899454264"
            },
            "miss_distance": {
                "astronomical": "0.0125542533",
                "lunar": "4.8836045337",
                "kilometers": "1878089.553120471",
                "miles": "1166990.7342296598"
            },
            "orbiting_body": "Earth"
        }
    ],
    "orbital_data": {
        "orbit_id": "15",
        "orbit_determination_date": "2017-04-06 09:01:55",
        "first_observation_date": "2008-12-19",
        "last_observation_date": "2009-01-25",
        "data_arc_in_days": 37,
        "observations_used": 48,
        "orbit_uncertainty": "7",
        "minimum_orbit_intersection": ".00263594",
        "jupiter_tisserand_invariant": "4.129",
        "epoch_osculation": "2459000.5",
        "eccentricity": ".4382003419564596",
        "semi_major_axis": "1.627795988510194",
        "inclination": "21.98347851280232",
        "ascending_node_longitude": "86.9587479074641",
        "orbital_period": "758.5747588418579",
        "perihelion_distance": ".9144952297096738",
        "perihelion_argument": "321.1373799591181",
        "aphelion_distance": "2.341096747310714",
        "perihelion_time": "2459338.391188343203",
        "mean_anomaly": "199.6455637552896",
        "mean_motion": ".474574187717008",
        "equinox": "J2000",
        "orbit_class": {
            "orbit_class_type": "APO",
            "orbit_class_description": "Near-Earth asteroid orbits which cross the Earth’s orbit similar to that of 1862 Apollo",
            "orbit_class_range": "a (semi-major axis) > 1.0 AU; q (perihelion) < 1.017 AU"
        }
    },
    "is_sentry_object": false
}